GPS BIIR-2  (PRN 13)    
1 24876U 97035A   20113.10037554  .00000033  00000-0  00000-0 0  9999
2 24876  55.4537 186.3540 0039091  61.9919 298.4737  2.00565197166886
GPS BIIR-3  (PRN 11)    
1 25933U 99055A   20115.38368394 -.00000083  00000-0  00000+0 0  9994
2 25933  52.2852  32.3374 0157273 113.5007  38.0454  2.00558402150547
GPS BIIR-4  (PRN 20)    
1 26360U 00025A   20115.37132618  .00000033  00000-0  00000-0 0  9990
2 26360  53.4996 111.4217 0049547 154.0853  24.3877  2.00567128146246
GPS BIIR-5  (PRN 28)    
1 26407U 00040A   20114.68750377 -.00000032  00000-0  00000-0 0  9990
2 26407  56.0369 304.3292 0186653 279.2187  88.7786  2.00564810144917
GPS BIIR-6  (PRN 14)    
1 26605U 00071A   20115.30106235  .00000046  00000-0  00000+0 0  9995
2 26605  55.0294 183.5901 0115229 250.3273 115.9994  2.00567870142511
GPS BIIR-8  (PRN 16)    
1 27663U 03005A   20115.25219469 -.00000029  00000-0  00000+0 0  9990
2 27663  56.0930 304.0917 0113951  34.8924 145.8741  2.00555094126271
GPS BIIR-9  (PRN 21)    
1 27704U 03010A   20113.79945902 -.00000067  00000-0  00000-0 0  9990
2 27704  54.5886  55.2722 0249380 283.2039 259.0375  2.00581292125057
GPS BIIR-10 (PRN 22)    
1 28129U 03058A   20115.28373006  .00000037  00000-0  00000-0 0  9996
2 28129  53.3101 114.1507 0074230 291.7233  67.5037  2.00581308119768
GPS BIIR-11 (PRN 19)    
1 28190U 04009A   20115.53093766 -.00000078  00000-0  00000-0 0  9997
2 28190  56.2778   4.8722 0091372  91.6011  84.5601  2.00563086117968
GPS BIIR-12 (PRN 23)    
1 28361U 04023A   20115.45321299  .00000049  00000-0  00000+0 0  9995
2 28361  54.0582 177.6322 0143269 234.4317 139.2908  2.00389309116041
GPS BIIR-13 (PRN 02)    
1 28474U 04045A   20114.63763418 -.00000062  00000-0  00000-0 0  9993
2 28474  54.9363  55.1018 0200015 266.3525 262.7387  2.00562941113395
GPS BIIRM-1 (PRN 17)    
1 28874U 05038A   20114.51229954 -.00000079  00000-0  00000-0 0  9997
2 28874  56.3837   2.2946 0134887 266.0353 275.5325  2.00562698106792
GPS BIIRM-2 (PRN 31)    
1 29486U 06042A   20115.37706819 -.00000000  00000-0  00000-0 0  9992
2 29486  54.8802 240.5411 0094980   6.0223 358.2450  2.00576491 99401
GPS BIIRM-3 (PRN 12)    
1 29601U 06052A   20114.81678295 -.00000030  00000-0  00000-0 0  9999
2 29601  56.0798 303.0282 0078926  64.6019 296.2151  2.00560004 98427
GPS BIIRM-4 (PRN 15)    
1 32260U 07047A   20115.12050993  .00000051  00000-0  00000+0 0  9994
2 32260  53.1828 173.0405 0120418  49.3537 311.7782  2.00563548 91809
GPS BIIRM-5 (PRN 29)    
1 32384U 07062A   20114.19149708 -.00000080  00000-0  00000-0 0  9991
2 32384  56.4779   2.9774 0011375 111.5421  67.5404  2.00573301 90502
GPS BIIRM-6 (PRN 07)    
1 32711U 08012A   20113.54546222 -.00000021  00000-0  00000+0 0  9995
2 32711  54.6260 239.7309 0138228 222.9268 135.9608  2.00563301 88690
GPS BIIRM-8 (PRN 05)    
1 35752U 09043A   20115.12073038  .00000044  00000-0  00000-0 0  9999
2 35752  54.5669 117.2394 0056602  43.3897  46.5882  2.00566916 78338
GPS BIIF-1  (PRN 25)    
1 36585U 10022A   20115.35166789 -.00000027  00000-0  00000-0 0  9996
2 36585  55.3534 299.0812 0090793  52.1006 309.8856  2.00576999 72574
GPS BIIF-2  (PRN 01)    
1 37753U 11036A   20115.48152122 -.00000049  00000-0  00000-0 0  9994
2 37753  56.1401  59.3997 0095819  42.9532 138.8684  2.00569295 64256
GPS BIIF-3  (PRN 24)    
1 38833U 12053A   20115.22235027 -.00000000  00000-0  00000-0 0  9999
2 38833  53.6664 235.5624 0094879  37.1988 323.4416  2.00565218 54525
GPS BIIF-4  (PRN 27)    
1 39166U 13023A   20115.07939419 -.00000076  00000-0  00000+0 0  9998
2 39166  56.0492 358.9386 0080889  29.7578 330.7510  2.00565450 50849
GPS BIIF-5  (PRN 30)    
1 39533U 14008A   20114.08611704 -.00000016  00000-0  00000+0 0  9998
2 39533  53.7856 241.0382 0045654 196.7867 163.0361  2.00564971 45189
GPS BIIF-6  (PRN 06)    
1 39741U 14026A   20114.36819078 -.00000056  00000-0  00000-0 0  9999
2 39741  56.1147  58.9711 0021073 296.7477  63.0129  2.00550305 43497
GPS BIIF-7  (PRN 09)    
1 40105U 14045A   20114.45136501  .00000049  00000-0  00000+0 0  9999
2 40105  54.5845 178.1454 0013479 105.9851 254.2491  2.00554726 41920
GPS BIIF-8  (PRN 03)    
1 40294U 14068A   20115.31917223  .00000047  00000-0  00000+0 0  9995
2 40294  55.3176 119.0324 0026136  35.6251 324.5744  2.00575633 40169
GPS BIIF-9  (PRN 26)    
1 40534U 15013A   20115.45764074 -.00000027  00000-0  00000-0 0  9992
2 40534  54.2699 297.0899 0047001  10.2885 349.7962  2.00571664 36801
GPS BIIF-10 (PRN 08)    
1 40730U 15033A   20115.11673948 -.00000076  00000-0  00000+0 0  9997
2 40730  55.5671 358.1339 0053696 351.7854   8.1782  2.00566043 34985
GPS BIIF-11 (PRN 10)    
1 41019U 15062A   20115.16820312  .00000047  00000-0  00000-0 0  9992
2 41019  55.3148 118.8632 0056697 211.2333 148.4543  2.00564525 32801
GPS BIIF-12 (PRN 32)    
1 41328U 16007A   20115.25973461  .00000050  00000-0  00000-0 0  9993
2 41328  54.8215 178.5852 0040282 221.3988 138.3817  2.00559645 30864
GPS BIII-1  (PRN 04)    
1 43873U 18109A   20115.29344035  .00000048  00000-0  00000+0 0  9994
2 43873  55.0018 180.8422 0008407 223.7553  52.9131  2.00561015  9995
